{
    "links": {
        "self": "http://www.neowsapp.com/rest/v1/neo/3893950?api_key=iIulBulltgU6a56xZRHN4H3l9WmuAYTsLGpBGhQ2"
    },
    "id": "3893950",
    "neo_reference_id": "3893950",
    "name": "(2019 XA1)",
    "designation": "2019 XA1",
    "nasa_jpl_url": "http://ssd.jpl.nasa.gov/sbdb.cgi?sstr=3893950",
    "absolute_magnitude_h": 24.2,
    "estimated_diameter": {
        "kilometers": {
            "estimated_diameter_min": 0.0384197891,
            "estimated_diameter_max": 0.0859092601
        },
        "meters": {
            "estimated_diameter_min": 38.4197891064,
            "estimated_diameter_max": 85.9092601232
        },
        "miles": {
            "estimated_diameter_min": 0.0238729428,
            "estimated_diameter_max": 0.0533815229
        },
        "feet": {
            "estimated_diameter_min": 126.0491808919,
            "estimated_diameter_max": 281.8545369825
        }
    },
    "is_potentially_hazardous_asteroid": false,
    "close_approach_data": [
        {
            "close_approach_date": "2019-11-26",
            "close_approach_date_full": "2019-Nov-26 20:42",
            "epoch_date_close_approach": 1574800920000,
            "relative_velocity": {
                "kilometers_per_second": "13.8078323945",
                "kilometers_per_hour": "49708.1966202835",
                "miles_per_hour": "30886.7402833089"
            },
            "miss_distance": {
                "astronomical": "0.0557568838",
                "lunar": "21.6894277982",
                "kilometers": "8341111.054317506",
                "miles": "5182926.0736773428"
            },
            "orbiting_body": "Earth"
        },
        {
            "close_approach_date": "2021-06-01",
            "close_approach_date_full": "2021-Jun-01 08:32",
            "epoch_date_close_approach": 1622536320000,
            "relative_velocity": {
                "kilometers_per_second": "24.6592942508",
                "kilometers_per_hour": "88773.4593027464",
                "miles_per_hour": "55160.3753095315"
            },
            "miss_distance": {
                "astronomical": "0.3525478257",
                "lunar": "137.1411041973",
                "kilometers": "52740403.797851259",
                "miles": "32771367.2914910142"
            },
            "orbiting_body": "Earth"
        },
        {
            "close_approach_date": "2072-01-26",
            "close_approach_date_full": "2072-Jan-26 07:50",
            "epoch_date_close_approach": 3221020200000,
            "relative_velocity": {
                "kilometers_per_second": "9.4723725896",
                "kilometers_per_hour": "34100.5413224102",
                "miles_per_hour": "21188.7502455832"
            },
            "miss_distance": {
                "astronomical": "0.0772485383",
                "lunar": "30.0496813987",
                "kilometers": "11556216.790293421",
                "miles": "7180700.1399983698"
            },
            "orbiting_body": "Mars"
        }
    ],
    "orbital_data": {
        "orbit_id": "6",
        "orbit_determination_date": "2020-01-08 06:22:38",
        "first_observation_date": "2019-12-03",
        "last_observation_date": "2019-12-20",
        "data_arc_in_days": 17,
        "observations_used": 45,
        "orbit_uncertainty": "8",
        "minimum_orbit_intersection": ".00382497",
        "jupiter_tisserand_invariant": "4.444",
        "epoch_osculation": "2458822.5",
        "eccentricity": ".4963108472271773",
        "semi_major_axis": "1.474979327976767",
        "inclination": "7.471701406106517",
        "ascending_node_longitude": "87.746119869719",
        "orbital_period": "654.3006132814259",
        "perihelion_distance": ".7429310880660452",
        "perihelion_argument": "260.7940596573602",
        "aphelion_distance": "2.20702756788749",
        "perihelion_time": "2458763.958579123851",
        "mean_anomaly": "32.20982998887845",
        "mean_motion": ".5502058116597819",
        "equinox": "J2000",
        "orbit_class": {
            "orbit_class_type": "APO",
            "orbit_class_description": "Near-Earth asteroid orbits which cross the Earth’s orbit similar to that of 1862 Apollo",
            "orbit_class_range": "a (semi-major axis) > 1.0 AU; q (perihelion) < 1.017 AU"
        }
    },
    "is_sentry_object": false
}